[{"OBJECT_NAME":"YUNHAI-2 01C","OBJECT_ID":"2018-112C","EPOCH":"2026-03-09T23:40:43.339008","MEAN_MOTION":14.28951205,"ECCENTRICITY":5.385e-5,"INCLINATION":50.0116,"RA_OF_ASC_NODE":48.4892,"ARG_OF_PERICENTER":172.1642,"MEAN_ANOMALY":187.9282,"EPHEMERIS_TYPE":0,"CLASSIFICATION_TYPE":"U","NORAD_CAT_ID":43911,"ELEMENT_SET_NO":999,"REV_AT_EPOCH":37760,"BSTAR":8.3785899e-5,"MEAN_MOTION_DOT":5.2e-7,"MEAN_MOTION_DDOT":0},{"OBJECT_NAME":"CZ-6A DEB","OBJECT_ID":"2022-151GD","EPOCH":"2026-03-09T22:21:35.636544","MEAN_MOTION":14.12739326,"ECCENTRICITY":0.00819856,"INCLINATION":98.9146,"RA_OF_ASC_NODE":81.0947,"ARG_OF_PERICENTER":224.9849,"MEAN_ANOMALY":134.4662,"EPHEMERIS_TYPE":0,"CLASSIFICATION_TYPE":"U","NORAD_CAT_ID":54453,"ELEMENT_SET_NO":999,"REV_AT_EPOCH":17057,"BSTAR":0.0013379455,"MEAN_MOTION_DOT":2.519e-5,"MEAN_MOTION_DDOT":0}]
